OBJECT_NAME,OBJECT_ID,EPOCH,MEAN_MOTION,ECCENTRICITY,INCLINATION,RA_OF_ASC_NODE,ARG_OF_PERICENTER,MEAN_ANOMALY,EPHEMERIS_TYPE,CLASSIFICATION_TYPE,NORAD_CAT_ID,ELEMENT_SET_NO,REV_AT_EPOCH,BSTAR,MEAN_MOTION_DOT,MEAN_MOTION_DDOT
STARLINK-32807,2025-019S,2026-07-22T13:27:38.468160,15.27606429,.00008586,42.9986,39.8582,248.9887,111.0872,0,U,62845,999,8296,.93907991E-3,.2569E-3,0
STARLINK-32804,2025-019T,2026-07-22T14:27:18.265536,15.27584026,.00010125,42.9993,47.1058,276.0045,84.0691,0,U,62846,999,8288,.43186601E-3,.11642E-3,0
STARLINK-32799,2025-019U,2026-07-21T22:23:32.292096,15.27595446,.00008691,42.9989,50.6755,285.8167,74.2589,0,U,62847,999,8278,.59110536E-3,.16047E-3,0
STARLINK-32781,2025-019V,2026-07-22T14:25:27.541344,15.27595578,.00002287,42.9972,47.0974,291.5900,68.4927,0,U,62848,999,8288,.70170156E-3,.19107E-3,0
STARLINK-32809,2025-019W,2026-07-22T13:50:18.129408,15.27587420,.000168,42.9989,46.9049,286.4874,73.5793,0,U,62849,999,8288,.59391263E-3,.16121E-3,0
STARLINK-32868,2025-022A,2026-07-22T07:32:33.838656,15.34412416,.00011049,53.1580,221.3280,87.5597,272.5532,0,U,62854,999,8336,.62796356E-3,.20908E-3,0
STARLINK-32867,2025-022B,2026-07-22T11:29:18.500640,15.34435892,.00009695,53.1571,222.3383,57.5266,302.5830,0,U,62855,999,8255,.61488286E-3,.20479E-3,0
STARLINK-32860,2025-022C,2026-07-22T07:42:19.941696,15.34422168,.00009707,53.1582,222.7887,88.2410,271.8704,0,U,62856,999,8253,.11821164E-2,.39804E-3,0
STARLINK-32873,2025-022D,2026-07-22T07:51:24.517440,15.34408217,.00013596,53.1580,222.8323,93.4691,266.6467,0,U,62857,999,8253,.24880041E-3,.8041E-4,0
STARLINK-32866,2025-022E,2026-07-22T12:26:04.189920,15.34396211,.00023209,53.1582,220.4673,134.3231,225.7963,0,U,62858,999,8258,.57122084E-3,.1897E-3,0
STARLINK-32869,2025-022F,2026-07-22T08:12:37.338048,15.34427358,.00010393,53.1569,222.9056,103.7028,256.4091,0,U,62859,999,8253,.73726841E-3,.24637E-3,0
STARLINK-32831,2025-022G,2026-07-22T07:27:10.401984,15.34421107,.00021381,53.1579,222.7246,163.4766,196.6307,0,U,62860,999,8252,.67610522E-3,.22551E-3,0
STARLINK-32859,2025-022H,2026-07-22T11:38:23.934336,15.34416902,.00009165,53.1563,222.3890,52.5704,307.5381,0,U,62861,999,8255,.61632242E-3,.20515E-3,0
STARLINK-32864,2025-022J,2026-07-22T10:52:57.069984,15.34401037,.00010736,53.1584,222.1809,86.2027,273.9099,0,U,62862,999,8255,.1165796E-2,.39219E-3,0
STARLINK-32808,2025-022K,2026-07-22T11:26:15.158112,15.34444432,.00009298,53.1572,222.3355,70.8377,289.2726,0,U,62863,999,8255,.78068757E-3,.2613E-3,0
STARLINK-32862,2025-022L,2026-07-22T11:08:05.948736,15.34413566,.00010609,53.1578,222.2614,90.0818,270.0306,0,U,62864,999,8255,.10326735E-2,.34691E-3,0
STARLINK-32841,2025-022M,2026-07-22T07:57:27.625536,15.34435349,.00006227,53.1576,222.8572,76.8591,283.2481,0,U,62865,999,8252,.72390174E-3,.24188E-3,0
STARLINK-32695,2025-022N,2026-07-22T10:46:12.656640,15.34416233,.00008988,53.1575,220.7470,63.3131,296.7963,0,U,62866,999,8257,.65576499E-3,.21856E-3,0
STARLINK-32846,2025-022P,2026-07-22T08:03:31.937184,15.34419354,.00008088,53.1581,222.8645,88.5065,271.6030,0,U,62867,999,8253,.6090975E-3,.20271E-3,0
STARLINK-32822,2025-022Q,2026-07-22T10:46:53.526432,15.34425697,.00001434,53.1582,222.1671,36.0259,324.0754,0,U,62868,999,8255,.72470346E-3,.24208E-3,0
STARLINK-32813,2025-022R,2026-07-22T11:17:11.183712,15.34421143,.00008819,53.1576,222.3008,88.8018,271.3086,0,U,62869,999,8255,.79533648E-3,.26609E-3,0
STARLINK-32861,2025-022S,2026-07-22T06:07:51.358656,15.34410484,.00012985,53.1577,221.6693,114.8337,245.2801,0,U,62870,999,8254,.67878644E-3,.22635E-3,0
STARLINK-32814,2025-022T,2026-07-22T09:04:00.204096,15.34421864,.00009664,53.1583,222.4366,331.7201,28.3749,0,U,62871,999,8254,.72041561E-3,.24059E-3,0
STARLINK-32849,2025-022U,2026-07-22T10:40:49.757376,15.34412918,.00004863,53.1584,222.1450,46.0874,314.0168,0,U,62872,999,8255,.65898073E-3,.21963E-3,0
STARLINK-32833,2025-022V,2026-07-22T11:02:02.433696,15.34414804,.00008583,53.1583,222.2350,78.9761,281.1338,0,U,62873,999,8255,.81717205E-3,.27347E-3,0
STARLINK-32793,2025-022W,2026-07-22T07:03:04.186944,15.34414627,.00011075,53.1577,223.3291,136.2902,223.8189,0,U,62874,999,8252,.62191617E-3,.20704E-3,0
STARLINK-32834,2025-022X,2026-07-22T07:36:15.473664,15.34425934,.00031138,53.1590,222.7639,169.6416,190.4651,0,U,62875,999,8253,.60071332E-3,.19992E-3,0
STARLINK-11371 [DTC],2025-024A,2026-07-21T17:24:09.712224,15.70956700,.00023848,43.0017,93.8280,242.9881,117.0744,0,U,62879,999,8454,.15137378E-2,.199501E-2,0
STARLINK-11352 [DTC],2025-024B,2026-07-21T18:02:12.216192,15.70835221,.0004251,43.0018,93.1453,286.5099,73.5301,0,U,62880,999,8455,.12315473E-2,.160684E-2,0
STARLINK-11382 [DTC],2025-024C,2026-07-22T14:23:03.643872,15.71198710,.00029234,42.9993,88.3347,231.3392,128.7214,0,U,62881,999,8468,.18063533E-2,.241838E-2,0
STARLINK-11432 [DTC],2025-024D,2026-07-21T17:16:31.120896,15.70900159,.00013324,42.9994,93.7853,268.8066,91.2649,0,U,62882,999,8454,.11919425E-2,.155786E-2,0
STARLINK-11419 [DTC],2025-024E,2026-07-22T09:40:44.930784,15.70925925,.0000703,43.0017,89.4401,315.0879,44.9931,0,U,62883,999,8465,.56611735E-3,.73096E-3,0
STARLINK-11437 [DTC],2025-024F,2026-07-22T14:30:42.359616,15.71048413,.00030528,43.0016,88.3757,248.6060,111.4482,0,U,62884,999,8468,.13778677E-2,.181879E-2,0
STARLINK-11442 [DTC],2025-024G,2026-07-21T17:46:54.595488,15.71001334,.00036348,43.0008,93.0588,243.3938,116.6557,0,U,62885,999,8455,.22280531E-2,.297974E-2,0
STARLINK-11365 [DTC],2025-024H,2026-07-21T17:54:33.694848,15.71024799,.00006674,43.0002,93.1016,3.8704,356.2169,0,U,62886,999,8455,.19690776E-2,.262385E-2,0
STARLINK-11436 [DTC],2025-024J,2026-07-21T16:45:56.072160,15.70971495,.00018122,43.0000,93.6113,241.5597,118.5088,0,U,62887,999,8454,.16706152E-2,.220927E-2,0
STARLINK-11438 [DTC],2025-024K,2026-07-21T17:55:52.197888,15.70900790,.00020557,43.0008,93.1068,252.9719,107.0923,0,U,62888,999,8455,.16226398E-2,.213748E-2,0
STARLINK-11391 [DTC],2025-024L,2026-07-22T14:00:07.503552,15.70990904,.00029323,42.9981,88.1869,297.2707,62.7862,0,U,62889,999,8468,.14861307E-2,.196065E-2,0
STARLINK-11431 [DTC],2025-024M,2026-07-21T17:39:26.928576,15.70939720,.00017326,43.0003,93.9089,241.8194,118.2499,0,U,62890,999,8454,.11750724E-2,.153795E-2,0
STARLINK-11435 [DTC],2025-024N,2026-07-21T09:54:01.142208,15.70864323,.0001148,43.0002,95.7833,283.5132,76.5608,0,U,62891,999,8449,.12100879E-2,.157967E-2,0
STARLINK-32878,2025-024P,2026-07-22T13:50:26.369376,15.27610573,.00017909,43.0010,283.7266,267.2019,92.8628,0,U,62892,999,8289,.87934723E-3,.24037E-3,0
STARLINK-32892,2025-024Q,2026-07-22T13:55:59.546784,15.27609071,.00011535,42.9989,283.7530,284.3521,75.7203,0,U,62893,999,8289,.89218478E-3,.24392E-3,0
STARLINK-32909,2025-024R,2026-07-22T14:05:14.404992,15.27591687,.00014213,42.9991,283.8027,265.3135,94.7554,0,U,62894,999,8289,.21891565E-3,.5769E-4,0
STARLINK-32901,2025-024S,2026-07-22T13:24:31.848480,15.27603131,.00020808,43.0004,283.5863,263.9980,96.0634,0,U,62895,999,8289,.81875192E-3,.22353E-3,0
STARLINK-32890,2025-024T,2026-07-22T14:16:08.120352,15.27597085,.0001545,43.0020,282.9962,282.1107,77.9572,0,U,62896,999,8290,.55215952E-3,.14971E-3,0
STARLINK-32893,2025-024U,2026-07-21T05:35:30.503616,15.27591262,.0001258,43.0017,290.8340,207.8784,152.2000,0,U,62897,999,8269,.47380692E-3,.12803E-3,0
STARLINK-32902,2025-024V,2026-07-21T07:04:06.776832,15.27588631,.00011182,42.9995,290.4316,263.4106,96.6618,0,U,62898,999,8270,.37796667E-3,.10156E-3,0
STARLINK-32661,2025-024W,2026-07-21T13:57:44.609184,15.27594703,.00014035,43.0003,289.1553,277.1842,82.8850,0,U,62899,999,8274,.48367781E-3,.13077E-3,0
STARLINK-11552 [DTC],2025-027A,2026-07-22T12:05:10.007520,15.70855821,.0001508,43.0009,255.1609,345.7901,14.2924,0,U,62907,999,8439,.15236756E-2,.199967E-2,0
STARLINK-11561 [DTC],2025-027B,2026-07-22T12:58:29.654400,15.70824928,.00008074,43.0004,254.5634,281.3929,78.6848,0,U,62908,999,8436,.1209568E-2,.157632E-2,0
STARLINK-11567 [DTC],2025-027C,2026-07-22T12:28:06.137472,15.71142330,.0002131,42.9995,255.2884,302.3451,57.7211,0,U,62909,999,8435,.19241983E-2,.25751E-2,0
STARLINK-11569 [DTC],2025-027D,2026-07-22T13:13:46.933824,15.70833414,.00016228,43.0004,254.6493,259.2670,100.8015,0,U,62910,999,8436,.12719217E-2,.16601E-2,0
STARLINK-11537 [DTC],2025-027E,2026-07-22T11:57:31.716000,15.71094667,.00017322,43.0002,255.1166,297.6770,62.3922,0,U,62911,999,8439,.19400622E-2,.259165E-2,0
STARLINK-11565 [DTC],2025-027F,2026-07-22T12:43:12.059616,15.71060095,.00024473,43.0006,254.4757,283.2357,76.8237,0,U,62912,999,8436,.19863114E-2,.265168E-2,0
STARLINK-11564 [DTC],2025-027G,2026-07-22T04:34:59.732832,15.70883437,.00011894,42.9997,257.1195,265.4727,94.6005,0,U,62913,999,8430,.14513052E-2,.190448E-2,0
STARLINK-11566 [DTC],2025-027H,2026-07-22T10:48:53.306208,15.70991488,.00018757,43.0008,255.6267,244.5712,115.4962,0,U,62914,999,8438,.13935903E-2,.183538E-2,0
STARLINK-11555 [DTC],2025-027J,2026-07-22T12:21:45.409824,15.70887202,.00022798,43.0010,255.2511,264.6735,95.3872,0,U,62915,999,8439,.15546348E-2,.204426E-2,0
STARLINK-11430 [DTC],2025-027K,2026-07-21T10:39:13.476672,15.70869360,.00008059,42.9996,261.8418,200.4640,159.6196,0,U,62916,999,8422,.86916009E-3,.112738E-2,0
STARLINK-11560 [DTC],2025-027L,2026-07-22T13:21:25.309152,15.70824377,.00021956,43.0006,254.6869,253.8757,106.1870,0,U,62917,999,8436,.12596205E-2,.164309E-2,0
STARLINK-11562 [DTC],2025-027M,2026-07-22T13:06:08.430624,15.70865992,.00008479,43.0007,254.6014,301.3025,58.7759,0,U,62918,999,8440,.11263208E-2,.146812E-2,0
STARLINK-11457 [DTC],2025-027N,2026-07-22T12:50:50.534304,15.70847638,.00020318,43.0001,254.5156,252.3411,107.7235,0,U,62919,999,8436,.10694063E-2,.139139E-2,0
STARLINK-32921,2025-027P,2026-07-22T09:13:23.211552,15.27673780,.00018587,42.9987,88.0582,254.8978,105.1669,0,U,62920,999,8214,.94259213E-3,.25842E-3,0
